STARLINK-32630          
1 62047U 24216R   26076.74367039  .00016505  00000+0  60773-3 0  9996
2 62047  42.9994 218.0798 0001275 266.4706  93.6000 15.27592704 75023
STARLINK-32599          
1 62048U 24216S   26076.74752404  .00022384  00000+0  82022-3 0  9994
2 62048  43.0013 218.1053 0001711 267.8851  92.1805 15.27590047 75029
STARLINK-32473          
1 62049U 24216T   26076.65869206  .00016433  00000+0  60537-3 0  9999
2 62049  42.9989 211.3774 0001893 269.2733  90.7902 15.27579023 73932
STARLINK-32492          
1 62050U 24216U   26076.78723528  .00023644  00000+0  86624-3 0  9998
2 62050  43.0007 217.5448 0001854 260.7533  99.3109 15.27569752 75039
STARLINK-32496          
1 62051U 24216V   26076.75780818  .00018215  00000+0  66944-3 0  9992
2 62051  42.9983 218.1833 0000134  10.4700 349.6154 15.27597933 75024
STARLINK-32495          
1 62052U 24216W   26076.44229235  .00019989  00000+0  73411-3 0  9996
2 62052  43.0033 219.2572 0001082 271.0082  89.0645 15.27571943 74983
STARLINK-32494          
1 62053U 24216X   26076.72953159  .00031891  00000+0  11624-2 0  9990
2 62053  42.9992 217.9734 0002127 257.9234 102.1380 15.27607687 75028
STARLINK-32408          
1 62054U 24216Y   26076.65483472  .00006215  00000+0  23543-3 0  9995
2 62054  42.9968 211.3489 0002466 275.2958  84.7612 15.27547436 75106
STARLINK-32571          
1 62055U 24216Z   26076.74449093  .00010727  00000+0  39867-3 0  9996
2 62055  43.0026 210.3054 0000974 291.2171  68.8577 15.27587521 75212
STARLINK-11465 [DTC]    
1 62057U 24217A   26076.18544779  .00106368  00000+0  87116-3 0  9991
2 62057  53.1568  34.0991 0001631  34.0872 326.0251 15.69721894 76353
STARLINK-11426 [DTC]    
1 62058U 24217B   26076.11687280  .00192606  00000+0  15584-2 0  9999
2 62058  53.1571  34.3793 0001903  29.8804 330.2322 15.69703613 76287
STARLINK-11454 [DTC]    
1 62059U 24217C   26076.59689707  .00190618  00000+0  15389-2 0  9992
2 62059  53.1592  32.4089 0000860  83.9701 276.1415 15.69763561 76410
STARLINK-11473 [DTC]    
1 62060U 24217D   26076.60670857  .00142700  00000+0  11600-2 0  9993
2 62060  53.1568  32.4730 0001199  90.2965 269.8191 15.69762751 76417
STARLINK-11429 [DTC]    
1 62061U 24217E   26076.84666779  .00198436  00000+0  16003-2 0  9997
2 62061  53.1578  31.1201 0001735  90.9567 269.1650 15.69763453 76456
STARLINK-11470 [DTC]    
1 62062U 24217F   26076.58706822  .00163296  00000+0  13226-2 0  9993
2 62062  53.1572  32.3403 0001702  48.4884 311.6280 15.69778542 76358
STARLINK-11427 [DTC]    
1 62063U 24217G   26076.60179582  .00181274  00000+0  14641-2 0  9992
2 62063  53.1588  32.4404 0000064 299.3556  60.7456 15.69783404 76418
