[{"OBJECT_NAME":"STARLINK-32630","OBJECT_ID":"2024-216R","EPOCH":"2026-03-17T17:50:53.121696","MEAN_MOTION":15.27592704,"ECCENTRICITY":0.0001275,"INCLINATION":42.9994,"RA_OF_ASC_NODE":218.0798,"ARG_OF_PERICENTER":266.4706,"MEAN_ANOMALY":93.6,"EPHEMERIS_TYPE":0,"CLASSIFICATION_TYPE":"U","NORAD_CAT_ID":62047,"ELEMENT_SET_NO":999,"REV_AT_EPOCH":7502,"BSTAR":0.00060773,"MEAN_MOTION_DOT":0.00016505,"MEAN_MOTION_DDOT":0},{"OBJECT_NAME":"STARLINK-32599","OBJECT_ID":"2024-216S","EPOCH":"2026-03-17T17:56:26.077056","MEAN_MOTION":15.27590047,"ECCENTRICITY":0.0001711,"INCLINATION":43.0013,"RA_OF_ASC_NODE":218.1053,"ARG_OF_PERICENTER":267.8851,"MEAN_ANOMALY":92.1805,"EPHEMERIS_TYPE":0,"CLASSIFICATION_TYPE":"U","NORAD_CAT_ID":62048,"ELEMENT_SET_NO":999,"REV_AT_EPOCH":7502,"BSTAR":0.00082022,"MEAN_MOTION_DOT":0.00022384,"MEAN_MOTION_DDOT":0},{"OBJECT_NAME":"STARLINK-32473","OBJECT_ID":"2024-216T","EPOCH":"2026-03-17T15:48:30.993984","MEAN_MOTION":15.27579023,"ECCENTRICITY":0.00018939,"INCLINATION":42.9989,"RA_OF_ASC_NODE":211.3774,"ARG_OF_PERICENTER":269.2733,"MEAN_ANOMALY":90.7902,"EPHEMERIS_TYPE":0,"CLASSIFICATION_TYPE":"U","NORAD_CAT_ID":62049,"ELEMENT_SET_NO":999,"REV_AT_EPOCH":7393,"BSTAR":0.00060536572,"MEAN_MOTION_DOT":0.00016433,"MEAN_MOTION_DDOT":0},{"OBJECT_NAME":"STARLINK-32492","OBJECT_ID":"2024-216U","EPOCH":"2026-03-17T18:53:37.128192","MEAN_MOTION":15.27569752,"ECCENTRICITY":0.0001854,"INCLINATION":43.0007,"RA_OF_ASC_NODE":217.5448,"ARG_OF_PERICENTER":260.7533,"MEAN_ANOMALY":99.3109,"EPHEMERIS_TYPE":0,"CLASSIFICATION_TYPE":"U","NORAD_CAT_ID":62050,"ELEMENT_SET_NO":999,"REV_AT_EPOCH":7503,"BSTAR":0.00086624,"MEAN_MOTION_DOT":0.00023644,"MEAN_MOTION_DDOT":0},{"OBJECT_NAME":"STARLINK-32496","OBJECT_ID":"2024-216V","EPOCH":"2026-03-17T18:11:14.626752","MEAN_MOTION":15.27597933,"ECCENTRICITY":1.34e-5,"INCLINATION":42.9983,"RA_OF_ASC_NODE":218.1833,"ARG_OF_PERICENTER":10.47,"MEAN_ANOMALY":349.6154,"EPHEMERIS_TYPE":0,"CLASSIFICATION_TYPE":"U","NORAD_CAT_ID":62051,"ELEMENT_SET_NO":999,"REV_AT_EPOCH":7502,"BSTAR":0.00066944,"MEAN_MOTION_DOT":0.00018215,"MEAN_MOTION_DDOT":0},{"OBJECT_NAME":"STARLINK-32495","OBJECT_ID":"2024-216W","EPOCH":"2026-03-17T10:36:54.059040","MEAN_MOTION":15.27571943,"ECCENTRICITY":0.00010825,"INCLINATION":43.0033,"RA_OF_ASC_NODE":219.2572,"ARG_OF_PERICENTER":271.0082,"MEAN_ANOMALY":89.0645,"EPHEMERIS_TYPE":0,"CLASSIFICATION_TYPE":"U","NORAD_CAT_ID":62052,"ELEMENT_SET_NO":999,"REV_AT_EPOCH":7498,"BSTAR":0.00073410698,"MEAN_MOTION_DOT":0.00019989,"MEAN_MOTION_DDOT":0},{"OBJECT_NAME":"STARLINK-32494","OBJECT_ID":"2024-216X","EPOCH":"2026-03-17T17:30:31.529376","MEAN_MOTION":15.27607687,"ECCENTRICITY":0.0002127,"INCLINATION":42.9992,"RA_OF_ASC_NODE":217.9734,"ARG_OF_PERICENTER":257.9234,"MEAN_ANOMALY":102.138,"EPHEMERIS_TYPE":0,"CLASSIFICATION_TYPE":"U","NORAD_CAT_ID":62053,"ELEMENT_SET_NO":999,"REV_AT_EPOCH":7502,"BSTAR":0.0011624,"MEAN_MOTION_DOT":0.00031891,"MEAN_MOTION_DDOT":0},{"OBJECT_NAME":"STARLINK-32408","OBJECT_ID":"2024-216Y","EPOCH":"2026-03-17T15:42:57.719808","MEAN_MOTION":15.27547436,"ECCENTRICITY":0.0002466,"INCLINATION":42.9968,"RA_OF_ASC_NODE":211.3489,"ARG_OF_PERICENTER":275.2958,"MEAN_ANOMALY":84.7612,"EPHEMERIS_TYPE":0,"CLASSIFICATION_TYPE":"U","NORAD_CAT_ID":62054,"ELEMENT_SET_NO":999,"REV_AT_EPOCH":7510,"BSTAR":0.00023542558,"MEAN_MOTION_DOT":6.215e-5,"MEAN_MOTION_DDOT":0},{"OBJECT_NAME":"STARLINK-32571","OBJECT_ID":"2024-216Z","EPOCH":"2026-03-17T17:52:04.016352","MEAN_MOTION":15.27587521,"ECCENTRICITY":9.74e-5,"INCLINATION":43.0026,"RA_OF_ASC_NODE":210.3054,"ARG_OF_PERICENTER":291.2171,"MEAN_ANOMALY":68.8577,"EPHEMERIS_TYPE":0,"CLASSIFICATION_TYPE":"U","NORAD_CAT_ID":62055,"ELEMENT_SET_NO":999,"REV_AT_EPOCH":7521,"BSTAR":0.00039867,"MEAN_MOTION_DOT":0.00010727,"MEAN_MOTION_DDOT":0},{"OBJECT_NAME":"STARLINK-11465 [DTC]","OBJECT_ID":"2024-217A","EPOCH":"2026-03-17T04:27:02.689056","MEAN_MOTION":15.69721894,"ECCENTRICITY":0.00016312,"INCLINATION":53.1568,"RA_OF_ASC_NODE":34.0991,"ARG_OF_PERICENTER":34.0872,"MEAN_ANOMALY":326.0251,"EPHEMERIS_TYPE":0,"CLASSIFICATION_TYPE":"U","NORAD_CAT_ID":62057,"ELEMENT_SET_NO":999,"REV_AT_EPOCH":7635,"BSTAR":0.0008711644,"MEAN_MOTION_DOT":0.00106368,"MEAN_MOTION_DDOT":0},{"OBJECT_NAME":"STARLINK-11426 [DTC]","OBJECT_ID":"2024-217B","EPOCH":"2026-03-17T02:48:17.809920","MEAN_MOTION":15.69703613,"ECCENTRICITY":0.00019036,"INCLINATION":53.1571,"RA_OF_ASC_NODE":34.3793,"ARG_OF_PERICENTER":29.8804,"MEAN_ANOMALY":330.2322,"EPHEMERIS_TYPE":0,"CLASSIFICATION_TYPE":"U","NORAD_CAT_ID":62058,"ELEMENT_SET_NO":999,"REV_AT_EPOCH":7628,"BSTAR":0.0015583987,"MEAN_MOTION_DOT":0.00192606,"MEAN_MOTION_DDOT":0},{"OBJECT_NAME":"STARLINK-11454 [DTC]","OBJECT_ID":"2024-217C","EPOCH":"2026-03-17T14:19:31.906848","MEAN_MOTION":15.69763561,"ECCENTRICITY":8.608e-5,"INCLINATION":53.1592,"RA_OF_ASC_NODE":32.4089,"ARG_OF_PERICENTER":83.9701,"MEAN_ANOMALY":276.1415,"EPHEMERIS_TYPE":0,"CLASSIFICATION_TYPE":"U","NORAD_CAT_ID":62059,"ELEMENT_SET_NO":999,"REV_AT_EPOCH":7641,"BSTAR":0.0015389296,"MEAN_MOTION_DOT":0.00190618,"MEAN_MOTION_DDOT":0},{"OBJECT_NAME":"STARLINK-11473 [DTC]","OBJECT_ID":"2024-217D","EPOCH":"2026-03-17T14:33:39.620448","MEAN_MOTION":15.69762751,"ECCENTRICITY":0.00011998,"INCLINATION":53.1568,"RA_OF_ASC_NODE":32.473,"ARG_OF_PERICENTER":90.2965,"MEAN_ANOMALY":269.8191,"EPHEMERIS_TYPE":0,"CLASSIFICATION_TYPE":"U","NORAD_CAT_ID":62060,"ELEMENT_SET_NO":999,"REV_AT_EPOCH":7641,"BSTAR":0.0011600218,"MEAN_MOTION_DOT":0.001427,"MEAN_MOTION_DDOT":0},{"OBJECT_NAME":"STARLINK-11429 [DTC]","OBJECT_ID":"2024-217E","EPOCH":"2026-03-17T20:19:12.097056","MEAN_MOTION":15.69763453,"ECCENTRICITY":0.0001735,"INCLINATION":53.1578,"RA_OF_ASC_NODE":31.1201,"ARG_OF_PERICENTER":90.9567,"MEAN_ANOMALY":269.165,"EPHEMERIS_TYPE":0,"CLASSIFICATION_TYPE":"U","NORAD_CAT_ID":62061,"ELEMENT_SET_NO":999,"REV_AT_EPOCH":7645,"BSTAR":0.0016003,"MEAN_MOTION_DOT":0.00198436,"MEAN_MOTION_DDOT":0},{"OBJECT_NAME":"STARLINK-11470 [DTC]","OBJECT_ID":"2024-217F","EPOCH":"2026-03-17T14:05:22.694208","MEAN_MOTION":15.69778542,"ECCENTRICITY":0.00017027,"INCLINATION":53.1572,"RA_OF_ASC_NODE":32.3403,"ARG_OF_PERICENTER":48.4884,"MEAN_ANOMALY":311.628,"EPHEMERIS_TYPE":0,"CLASSIFICATION_TYPE":"U","NORAD_CAT_ID":62062,"ELEMENT_SET_NO":999,"REV_AT_EPOCH":7635,"BSTAR":0.0013225736,"MEAN_MOTION_DOT":0.00163296,"MEAN_MOTION_DDOT":0},{"OBJECT_NAME":"STARLINK-11427 [DTC]","OBJECT_ID":"2024-217G","EPOCH":"2026-03-17T14:26:35.158848","MEAN_MOTION":15.69783404,"ECCENTRICITY":6.41e-6,"INCLINATION":53.1588,"RA_OF_ASC_NODE":32.4404,"ARG_OF_PERICENTER":299.3556,"MEAN_ANOMALY":60.7456,"EPHEMERIS_TYPE":0,"CLASSIFICATION_TYPE":"U","NORAD_CAT_ID":62063,"ELEMENT_SET_NO":999,"REV_AT_EPOCH":7641,"BSTAR":0.0014641263,"MEAN_MOTION_DOT":0.00181274,"MEAN_MOTION_DDOT":0}]
